ONEWEB-0291             
1 49081U 21075G   26149.02735420 -.00000252  00000+0 -68229-3 0  9992
2 49081  87.9158   9.6722 0001914  97.3386 262.7963 13.17649365231083
ONEWEB-0293             
1 49082U 21075H   26149.05266888  .00000091  00000+0  20036-3 0  9996
2 49082  87.9150   9.6710 0001666  89.8806 270.2517 13.17650458231118
ONEWEB-0294             
1 49083U 21075J   26149.04248575 -.00000023  00000+0 -10007-3 0  9993
2 49083  87.8956 354.4665 0001498  93.9294 266.2006 13.12441802232061
ONEWEB-0295             
1 49084U 21075K   26148.97589566  .00000063  00000+0  12984-3 0  9991
2 49084  87.9148   9.6906 0002000  94.4969 265.6391 13.17651587231065
ONEWEB-0296             
1 49085U 21075L   26149.02215329  .00000471  00000+0  12738-2 0  9991
2 49085  87.8960 354.4770 0001911  97.6503 262.4843 13.12442135232066
ONEWEB-0297             
1 49086U 21075M   26148.97640606 -.00000296  00000+0 -85926-3 0  9992
2 49086  87.8945 354.4997 0001867  89.3462 270.7880 13.12442210232666
ONEWEB-0298             
1 49087U 21075N   26149.05620287  .00000070  00000+0  14598-3 0  9991
2 49087  87.9148   9.6724 0001959  84.8979 275.2376 13.17647260231100
ONEWEB-0299             
1 49088U 21075P   26149.05774735  .00000089  00000+0  19525-3 0  9995
2 49088  87.9159   9.6506 0001943  88.1624 271.9730 13.17649566231083
ONEWEB-0300             
1 49089U 21075Q   26148.96878877 -.00000169  00000+0 -50500-3 0  9996
2 49089  87.8958 354.4785 0002071  79.8173 280.3189 13.12442665232684
ONEWEB-0301             
1 49090U 21075R   26149.02893977  .00000387  00000+0  10390-2 0  9996
2 49090  87.8955 354.4652 0001949  77.5721 282.5625 13.12442947232056
ONEWEB-0302             
1 49091U 21075S   26149.01537924  .00000446  00000+0  12053-2 0  9997
2 49091  87.8958 354.4791 0001610  96.4924 263.6388 13.12442696232039
ONEWEB-0304             
1 49092U 21075T   26149.03241545  .00000017  00000+0  10247-4 0  9990
2 49092  87.9149   9.6799 0001897  89.6216 270.5133 13.17651178231053
ONEWEB-0305             
1 49093U 21075U   26149.02566784 -.00000205  00000+0 -56075-3 0  9994
2 49093  87.9160   9.6644 0002159  93.1721 266.9658 13.17648905231087
ONEWEB-0308             
1 49094U 21075V   26149.00860035  .00000282  00000+0  74860-3 0  9994
2 49094  87.8958 354.4728 0001777  86.0138 274.1194 13.12443078232046
ONEWEB-0309             
1 49095U 21075W   26149.02906016  .00000095  00000+0  21245-3 0  9998
2 49095  87.9149   9.6735 0001490 100.0462 260.0838 13.17650352231055
ONEWEB-0310             
1 49096U 21075X   26149.02385120  .00000490  00000+0  13261-2 0  9993
2 49096  87.8947 354.4931 0001758  87.2356 272.8974 13.12442547232676
