[{"OBJECT_NAME":"ONEWEB-0291","OBJECT_ID":"2021-075G","EPOCH":"2026-05-29T00:39:23.402880","MEAN_MOTION":13.17649365,"ECCENTRICITY":0.0001914,"INCLINATION":87.9158,"RA_OF_ASC_NODE":9.6722,"ARG_OF_PERICENTER":97.3386,"MEAN_ANOMALY":262.7963,"EPHEMERIS_TYPE":0,"CLASSIFICATION_TYPE":"U","NORAD_CAT_ID":49081,"ELEMENT_SET_NO":999,"REV_AT_EPOCH":23108,"BSTAR":-0.00068229,"MEAN_MOTION_DOT":-2.52e-06,"MEAN_MOTION_DDOT":0.0},{"OBJECT_NAME":"ONEWEB-0293","OBJECT_ID":"2021-075H","EPOCH":"2026-05-29T01:15:50.591232","MEAN_MOTION":13.17650458,"ECCENTRICITY":0.0001666,"INCLINATION":87.915,"RA_OF_ASC_NODE":9.671,"ARG_OF_PERICENTER":89.8806,"MEAN_ANOMALY":270.2517,"EPHEMERIS_TYPE":0,"CLASSIFICATION_TYPE":"U","NORAD_CAT_ID":49082,"ELEMENT_SET_NO":999,"REV_AT_EPOCH":23111,"BSTAR":0.00020036,"MEAN_MOTION_DOT":9.1e-07,"MEAN_MOTION_DDOT":0.0},{"OBJECT_NAME":"ONEWEB-0294","OBJECT_ID":"2021-075J","EPOCH":"2026-05-29T01:01:10.768800","MEAN_MOTION":13.12441802,"ECCENTRICITY":0.0001498,"INCLINATION":87.8956,"RA_OF_ASC_NODE":354.4665,"ARG_OF_PERICENTER":93.9294,"MEAN_ANOMALY":266.2006,"EPHEMERIS_TYPE":0,"CLASSIFICATION_TYPE":"U","NORAD_CAT_ID":49083,"ELEMENT_SET_NO":999,"REV_AT_EPOCH":23206,"BSTAR":-0.00010007000000000001,"MEAN_MOTION_DOT":-2.3e-07,"MEAN_MOTION_DDOT":0.0},{"OBJECT_NAME":"ONEWEB-0295","OBJECT_ID":"2021-075K","EPOCH":"2026-05-28T23:25:17.385024","MEAN_MOTION":13.17651587,"ECCENTRICITY":0.0002,"INCLINATION":87.9148,"RA_OF_ASC_NODE":9.6906,"ARG_OF_PERICENTER":94.4969,"MEAN_ANOMALY":265.6391,"EPHEMERIS_TYPE":0,"CLASSIFICATION_TYPE":"U","NORAD_CAT_ID":49084,"ELEMENT_SET_NO":999,"REV_AT_EPOCH":23106,"BSTAR":0.00012984000000000002,"MEAN_MOTION_DOT":6.3e-07,"MEAN_MOTION_DDOT":0.0},{"OBJECT_NAME":"ONEWEB-0296","OBJECT_ID":"2021-075L","EPOCH":"2026-05-29T00:31:54.044256","MEAN_MOTION":13.12442135,"ECCENTRICITY":0.0001911,"INCLINATION":87.896,"RA_OF_ASC_NODE":354.477,"ARG_OF_PERICENTER":97.6503,"MEAN_ANOMALY":262.4843,"EPHEMERIS_TYPE":0,"CLASSIFICATION_TYPE":"U","NORAD_CAT_ID":49085,"ELEMENT_SET_NO":999,"REV_AT_EPOCH":23206,"BSTAR":0.0012738,"MEAN_MOTION_DOT":4.71e-06,"MEAN_MOTION_DDOT":0.0},{"OBJECT_NAME":"ONEWEB-0297","OBJECT_ID":"2021-075M","EPOCH":"2026-05-28T23:26:01.483584","MEAN_MOTION":13.1244221,"ECCENTRICITY":0.0001867,"INCLINATION":87.8945,"RA_OF_ASC_NODE":354.4997,"ARG_OF_PERICENTER":89.3462,"MEAN_ANOMALY":270.788,"EPHEMERIS_TYPE":0,"CLASSIFICATION_TYPE":"U","NORAD_CAT_ID":49086,"ELEMENT_SET_NO":999,"REV_AT_EPOCH":23266,"BSTAR":-0.00085926,"MEAN_MOTION_DOT":-2.96e-06,"MEAN_MOTION_DDOT":0.0},{"OBJECT_NAME":"ONEWEB-0298","OBJECT_ID":"2021-075N","EPOCH":"2026-05-29T01:20:55.927968","MEAN_MOTION":13.1764726,"ECCENTRICITY":0.0001959,"INCLINATION":87.9148,"RA_OF_ASC_NODE":9.6724,"ARG_OF_PERICENTER":84.8979,"MEAN_ANOMALY":275.2376,"EPHEMERIS_TYPE":0,"CLASSIFICATION_TYPE":"U","NORAD_CAT_ID":49087,"ELEMENT_SET_NO":999,"REV_AT_EPOCH":23110,"BSTAR":0.00014598,"MEAN_MOTION_DOT":7e-07,"MEAN_MOTION_DDOT":0.0},{"OBJECT_NAME":"ONEWEB-0299","OBJECT_ID":"2021-075P","EPOCH":"2026-05-29T01:23:09.371040","MEAN_MOTION":13.17649566,"ECCENTRICITY":0.0001943,"INCLINATION":87.9159,"RA_OF_ASC_NODE":9.6506,"ARG_OF_PERICENTER":88.1624,"MEAN_ANOMALY":271.973,"EPHEMERIS_TYPE":0,"CLASSIFICATION_TYPE":"U","NORAD_CAT_ID":49088,"ELEMENT_SET_NO":999,"REV_AT_EPOCH":23108,"BSTAR":0.00019525,"MEAN_MOTION_DOT":8.9e-07,"MEAN_MOTION_DDOT":0.0},{"OBJECT_NAME":"ONEWEB-0300","OBJECT_ID":"2021-075Q","EPOCH":"2026-05-28T23:15:03.349728","MEAN_MOTION":13.12442665,"ECCENTRICITY":0.0002071,"INCLINATION":87.8958,"RA_OF_ASC_NODE":354.4785,"ARG_OF_PERICENTER":79.8173,"MEAN_ANOMALY":280.3189,"EPHEMERIS_TYPE":0,"CLASSIFICATION_TYPE":"U","NORAD_CAT_ID":49089,"ELEMENT_SET_NO":999,"REV_AT_EPOCH":23268,"BSTAR":-0.000505,"MEAN_MOTION_DOT":-1.69e-06,"MEAN_MOTION_DDOT":0.0},{"OBJECT_NAME":"ONEWEB-0301","OBJECT_ID":"2021-075R","EPOCH":"2026-05-29T00:41:40.396128","MEAN_MOTION":13.12442947,"ECCENTRICITY":0.0001949,"INCLINATION":87.8955,"RA_OF_ASC_NODE":354.4652,"ARG_OF_PERICENTER":77.5721,"MEAN_ANOMALY":282.5625,"EPHEMERIS_TYPE":0,"CLASSIFICATION_TYPE":"U","NORAD_CAT_ID":49090,"ELEMENT_SET_NO":999,"REV_AT_EPOCH":23205,"BSTAR":0.001039,"MEAN_MOTION_DOT":3.87e-06,"MEAN_MOTION_DDOT":0.0},{"OBJECT_NAME":"ONEWEB-0302","OBJECT_ID":"2021-075S","EPOCH":"2026-05-29T00:22:08.766336","MEAN_MOTION":13.12442696,"ECCENTRICITY":0.000161,"INCLINATION":87.8958,"RA_OF_ASC_NODE":354.4791,"ARG_OF_PERICENTER":96.4924,"MEAN_ANOMALY":263.6388,"EPHEMERIS_TYPE":0,"CLASSIFICATION_TYPE":"U","NORAD_CAT_ID":49091,"ELEMENT_SET_NO":999,"REV_AT_EPOCH":23203,"BSTAR":0.0012053,"MEAN_MOTION_DOT":4.46e-06,"MEAN_MOTION_DDOT":0.0},{"OBJECT_NAME":"ONEWEB-0304","OBJECT_ID":"2021-075T","EPOCH":"2026-05-29T00:46:40.694880","MEAN_MOTION":13.17651178,"ECCENTRICITY":0.0001897,"INCLINATION":87.9149,"RA_OF_ASC_NODE":9.6799,"ARG_OF_PERICENTER":89.6216,"MEAN_ANOMALY":270.5133,"EPHEMERIS_TYPE":0,"CLASSIFICATION_TYPE":"U","NORAD_CAT_ID":49092,"ELEMENT_SET_NO":999,"REV_AT_EPOCH":23105,"BSTAR":1.0247e-05,"MEAN_MOTION_DOT":1.7e-07,"MEAN_MOTION_DDOT":0.0},{"OBJECT_NAME":"ONEWEB-0305","OBJECT_ID":"2021-075U","EPOCH":"2026-05-29T00:36:57.701376","MEAN_MOTION":13.17648905,"ECCENTRICITY":0.0002159,"INCLINATION":87.916,"RA_OF_ASC_NODE":9.6644,"ARG_OF_PERICENTER":93.1721,"MEAN_ANOMALY":266.9658,"EPHEMERIS_TYPE":0,"CLASSIFICATION_TYPE":"U","NORAD_CAT_ID":49093,"ELEMENT_SET_NO":999,"REV_AT_EPOCH":23108,"BSTAR":-0.0005607499999999999,"MEAN_MOTION_DOT":-2.05e-06,"MEAN_MOTION_DDOT":0.0},{"OBJECT_NAME":"ONEWEB-0308","OBJECT_ID":"2021-075V","EPOCH":"2026-05-29T00:12:23.070240","MEAN_MOTION":13.12443078,"ECCENTRICITY":0.0001777,"INCLINATION":87.8958,"RA_OF_ASC_NODE":354.4728,"ARG_OF_PERICENTER":86.0138,"MEAN_ANOMALY":274.1194,"EPHEMERIS_TYPE":0,"CLASSIFICATION_TYPE":"U","NORAD_CAT_ID":49094,"ELEMENT_SET_NO":999,"REV_AT_EPOCH":23204,"BSTAR":0.0007486000000000001,"MEAN_MOTION_DOT":2.82e-06,"MEAN_MOTION_DDOT":0.0},{"OBJECT_NAME":"ONEWEB-0309","OBJECT_ID":"2021-075W","EPOCH":"2026-05-29T00:41:50.797824","MEAN_MOTION":13.17650352,"ECCENTRICITY":0.000149,"INCLINATION":87.9149,"RA_OF_ASC_NODE":9.6735,"ARG_OF_PERICENTER":100.0462,"MEAN_ANOMALY":260.0838,"EPHEMERIS_TYPE":0,"CLASSIFICATION_TYPE":"U","NORAD_CAT_ID":49095,"ELEMENT_SET_NO":999,"REV_AT_EPOCH":23105,"BSTAR":0.00021245000000000001,"MEAN_MOTION_DOT":9.5e-07,"MEAN_MOTION_DDOT":0.0},{"OBJECT_NAME":"ONEWEB-0310","OBJECT_ID":"2021-075X","EPOCH":"2026-05-29T00:34:20.743680","MEAN_MOTION":13.12442547,"ECCENTRICITY":0.0001758,"INCLINATION":87.8947,"RA_OF_ASC_NODE":354.4931,"ARG_OF_PERICENTER":87.2356,"MEAN_ANOMALY":272.8974,"EPHEMERIS_TYPE":0,"CLASSIFICATION_TYPE":"U","NORAD_CAT_ID":49096,"ELEMENT_SET_NO":999,"REV_AT_EPOCH":23267,"BSTAR":0.0013261,"MEAN_MOTION_DOT":4.9e-06,"MEAN_MOTION_DDOT":0.0}]